start=new Date('2022-09-30T00:00:00.000Z').valueOf();
sats=[{"COUNTRY_CODE":"US","NORAD_CAT_ID":"48363","INCLINATION":"53.0550","SEMIMAJOR_AXIS":"6925.360","MEAN_ELEMENT_THEORY":"SGP4","ARG_OF_PERICENTER":"79.7697","ECCENTRICITY":"0.00013520","FILE":"3586894","EPOCH":"2022-09-29T08:12:00.265536","RA_OF_ASC_NODE":"241.0824","CLASSIFICATION_TYPE":"U","LAUNCH_DATE":"2021-05-04","OBJECT_TYPE":"PAYLOAD","TIME_SYSTEM":"UTC","EPHEMERIS_TYPE":"0","MEAN_MOTION_DOT":"-0.00000596","REV_AT_EPOCH":"7758","CENTER_NAME":"EARTH","APOAPSIS":"548.161","PERIAPSIS":"546.288","REF_FRAME":"TEME","GP_ID":"213805097","TLE_LINE1":"1 48363U 21038L   22272.34166974 -.00000596  00000-0 -21139-4 0  9995","TLE_LINE2":"2 48363  53.0550 241.0824 0001352  79.7697 280.3445 15.06396363 77586","MEAN_ANOMALY":"280.3445","DECAY_DATE":null,"RCS_SIZE":"LARGE","MEAN_MOTION_DDOT":"0.0000000000000","OBJECT_NAME":"STARLINK-2626","ELEMENT_SET_NO":"999","MEAN_MOTION":"15.06396363","SITE":"AFETR","PERIOD":"95.592","BSTAR":"-0.00002113900000","OBJECT_ID":"2021-038L"},{"OBJECT_ID":"2021-038M","SITE":"AFETR","PERIOD":"95.593","MEAN_MOTION":"15.06386629","ELEMENT_SET_NO":"999","OBJECT_NAME":"STARLINK-2611","MEAN_MOTION_DDOT":"0.0000000000000","BSTAR":"-0.00003543800000","DECAY_DATE":null,"RCS_SIZE":"LARGE","TLE_LINE2":"2 48364  53.0547 241.2128 0001555  68.1222 291.9932 15.06386629 77586","TLE_LINE1":"1 48364U 21038M   22272.35644942 -.00000809  00000-0 -35438-4 0  9997","GP_ID":"213803845","MEAN_ANOMALY":"291.9932","MEAN_MOTION_DOT":"-0.00000809","REV_AT_EPOCH":"7758","EPHEMERIS_TYPE":"0","TIME_SYSTEM":"UTC","REF_FRAME":"TEME","PERIAPSIS":"546.178","APOAPSIS":"548.331","CENTER_NAME":"EARTH","EPOCH":"2022-09-29T08:33:17.229888","CLASSIFICATION_TYPE":"U","RA_OF_ASC_NODE":"241.2128","OBJECT_TYPE":"PAYLOAD","LAUNCH_DATE":"2021-05-04","ECCENTRICITY":"0.00015550","ARG_OF_PERICENTER":"68.1222","FILE":"3586894","NORAD_CAT_ID":"48364","COUNTRY_CODE":"US","MEAN_ELEMENT_THEORY":"SGP4","INCLINATION":"53.0547","SEMIMAJOR_AXIS":"6925.390"},{"OBJECT_TYPE":"PAYLOAD","LAUNCH_DATE":"2021-05-04","CLASSIFICATION_TYPE":"U","RA_OF_ASC_NODE":"241.1891","EPOCH":"2022-09-29T07:34:51.296736","PERIAPSIS":"546.239","REF_FRAME":"TEME","CENTER_NAME":"EARTH","APOAPSIS":"548.218","EPHEMERIS_TYPE":"0","REV_AT_EPOCH":"7758","MEAN_MOTION_DOT":"0.00000136","TIME_SYSTEM":"UTC","MEAN_ELEMENT_THEORY":"SGP4","INCLINATION":"53.0528","SEMIMAJOR_AXIS":"6925.364","NORAD_CAT_ID":"48365","COUNTRY_CODE":"US","FILE":"3586894","ECCENTRICITY":"0.00014290","ARG_OF_PERICENTER":"77.5502","BSTAR":"0.00002805100000","MEAN_MOTION":"15.06395088","SITE":"AFETR","PERIOD":"95.592","MEAN_MOTION_DDOT":"0.0000000000000","OBJECT_NAME":"STARLINK-2608","ELEMENT_SET_NO":"999","OBJECT_ID":"2021-038N","MEAN_ANOMALY":"282.5647","GP_ID":"213804095","TLE_LINE1":"1 48365U 21038N   22272.31587149  .00000136  00000-0  28051-4 0  9993","TLE_LINE2":"2 48365  53.0528 241.1891 0001429  77.5502 282.5647 15.06395088 77585","RCS_SIZE":"LARGE","DECAY_DATE":null},{"PERIOD":"95.593","SITE":"AFETR","MEAN_MOTION":"15.06389161","ELEMENT_SET_NO":"999","MEAN_MOTION_DDOT":"0.0000000000000","OBJECT_NAME":"STARLINK-2631","BSTAR":"-0.00014230000000","OBJECT_ID":"2021-038P","TLE_LINE2":"2 48366  53.0543 233.8777 0001562  79.1002 281.0163 15.06389161 77723","GP_ID":"213836262","TLE_LINE1":"1 48366U 21038P   22272.83420235 -.00002400  00000-0 -14230-3 0  9994","MEAN_ANOMALY":"281.0163","DECAY_DATE":null,"RCS_SIZE":"LARGE","CLASSIFICATION_TYPE":"U","EPOCH":"2022-09-29T20:01:15.083040","RA_OF_ASC_NODE":"233.8777","OBJECT_TYPE":"PAYLOAD","LAUNCH_DATE":"2021-05-04","REV_AT_EPOCH":"7772","MEAN_MOTION_DOT":"-0.00002400","EPHEMERIS_TYPE":"0","TIME_SYSTEM":"UTC","REF_FRAME":"TEME","PERIAPSIS":"546.165","APOAPSIS":"548.329","CENTER_NAME":"EARTH","NORAD_CAT_ID":"48366","COUNTRY_CODE":"US","MEAN_ELEMENT_THEORY":"SGP4","INCLINATION":"53.0543","SEMIMAJOR_AXIS":"6925.382","ECCENTRICITY":"0.00015620","ARG_OF_PERICENTER":"79.1002","FILE":"3587117"},{"MEAN_ANOMALY":"269.0620","TLE_LINE1":"1 48367U 21038Q   22272.63149049 -.00000971  00000-0 -46306-4 0  9995","GP_ID":"213834517","TLE_LINE2":"2 48367  53.0555 234.7780 0001102  91.0496 269.0620 15.06384286 77694","RCS_SIZE":"LARGE","DECAY_DATE":null,"BSTAR":"-0.00004630600000","MEAN_MOTION_DDOT":"0.0000000000000","OBJECT_NAME":"STARLINK-2643","ELEMENT_SET_NO":"999","MEAN_MOTION":"15.06384286","SITE":"AFETR","PERIOD":"95.593","OBJECT_ID":"2021-038Q","INCLINATION":"53.0555","SEMIMAJOR_AXIS":"6925.397","MEAN_ELEMENT_THEORY":"SGP4","COUNTRY_CODE":"US","NORAD_CAT_ID":"48367","FILE":"3587117","ARG_OF_PERICENTER":"91.0496","ECCENTRICITY":"0.00011020","LAUNCH_DATE":"2021-05-04","OBJECT_TYPE":"PAYLOAD","EPOCH":"2022-09-29T15:09:20.778336","RA_OF_ASC_NODE":"234.7780","CLASSIFICATION_TYPE":"U","CENTER_NAME":"EARTH","APOAPSIS":"548.025","PERIAPSIS":"546.499","REF_FRAME":"TEME","TIME_SYSTEM":"UTC","EPHEMERIS_TYPE":"0","REV_AT_EPOCH":"7769","MEAN_MOTION_DOT":"-0.00000971"},{"OBJECT_ID":"2021-038R","OBJECT_NAME":"STARLINK-2623","MEAN_MOTION_DDOT":"0.0000000000000","ELEMENT_SET_NO":"999","MEAN_MOTION":"15.06388364","PERIOD":"95.593","SITE":"AFETR","BSTAR":"-0.00002548200000","DECAY_DATE":null,"RCS_SIZE":"LARGE","GP_ID":"213834767","TLE_LINE1":"1 48368U 21038R   22272.87480037 -.00000661  00000-0 -25482-4 0  9995","TLE_LINE2":"2 48368  53.0539 233.9670 0001532  69.7953 290.3200 15.06388364 77730","MEAN_ANOMALY":"290.3200","TIME_SYSTEM":"UTC","EPHEMERIS_TYPE":"0","MEAN_MOTION_DOT":"-0.00000661","REV_AT_EPOCH":"7773","CENTER_NAME":"EARTH","APOAPSIS":"548.310","PERIAPSIS":"546.188","REF_FRAME":"TEME","RA_OF_ASC_NODE":"233.9670","CLASSIFICATION_TYPE":"U","EPOCH":"2022-09-29T20:59:42.751968","LAUNCH_DATE":"2021-05-04","OBJECT_TYPE":"PAYLOAD","ARG_OF_PERICENTER":"69.7953","ECCENTRICITY":"0.00015320","FILE":"3587117","COUNTRY_CODE":"US","NORAD_CAT_ID":"48368","SEMIMAJOR_AXIS":"6925.384","INCLINATION":"53.0539","MEAN_ELEMENT_THEORY":"SGP4"},{"FILE":"3587117","ECCENTRICITY":"0.00017920","ARG_OF_PERICENTER":"70.2153","MEAN_ELEMENT_THEORY":"SGP4","INCLINATION":"53.0535","SEMIMAJOR_AXIS":"6925.326","NORAD_CAT_ID":"48369","COUNTRY_CODE":"US","REF_FRAME":"TEME","PERIAPSIS":"545.950","APOAPSIS":"548.432","CENTER_NAME":"EARTH","MEAN_MOTION_DOT":"0.00003643","REV_AT_EPOCH":"7773","EPHEMERIS_TYPE":"0","TIME_SYSTEM":"UTC","OBJECT_TYPE":"PAYLOAD","LAUNCH_DATE":"2021-05-04","EPOCH":"2022-09-29T21:26:09.989088","RA_OF_ASC_NODE":"233.6056","CLASSIFICATION_TYPE":"U","RCS_SIZE":"LARGE","DECAY_DATE":null,"MEAN_ANOMALY":"289.9029","TLE_LINE2":"2 48369  53.0535 233.6056 0001792  70.2153 289.9029 15.06407391 77734","GP_ID":"213836019","TLE_LINE1":"1 48369U 21038S   22272.89317117  .00003643  00000-0  26328-3 0  9996","OBJECT_ID":"2021-038S","BSTAR":"0.00026328000000","SITE":"AFETR","PERIOD":"95.592","MEAN_MOTION":"15.06407391","ELEMENT_SET_NO":"999","OBJECT_NAME":"STARLINK-2641","MEAN_MOTION_DDOT":"0.0000000000000"},{"BSTAR":"0.00032018000000","MEAN_MOTION_DDOT":"0.0000000000000","OBJECT_NAME":"STARLINK-2621","ELEMENT_SET_NO":"999","MEAN_MOTION":"15.06418012","SITE":"AFETR","PERIOD":"95.591","OBJECT_ID":"2021-038T","MEAN_ANOMALY":"282.6653","GP_ID":"213835762","TLE_LINE1":"1 48370U 21038T   22272.88949464  .00004493  00000-0  32018-3 0  9990","TLE_LINE2":"2 48370  53.0539 233.6189 0001443  77.4497 282.6653 15.06418012 77735","RCS_SIZE":"LARGE","DECAY_DATE":null,"LAUNCH_DATE":"2021-05-04","OBJECT_TYPE":"PAYLOAD","RA_OF_ASC_NODE":"233.6189","EPOCH":"2022-09-29T21:20:52.336896","CLASSIFICATION_TYPE":"U","CENTER_NAME":"EARTH","APOAPSIS":"548.158","PERIAPSIS":"546.159","REF_FRAME":"TEME","TIME_SYSTEM":"UTC","EPHEMERIS_TYPE":"0","REV_AT_EPOCH":"7773","MEAN_MOTION_DOT":"0.00004493","SEMIMAJOR_AXIS":"6925.293","INCLINATION":"53.0539","MEAN_ELEMENT_THEORY":"SGP4","COUNTRY_CODE":"US","NORAD_CAT_ID":"48370","FILE":"3587117","ARG_OF_PERICENTER":"77.4497","ECCENTRICITY":"0.00014430"},{"OBJECT_NAME":"STARLINK-2589","MEAN_MOTION_DDOT":"0.0000000000000","ELEMENT_SET_NO":"999","MEAN_MOTION":"15.06395715","PERIOD":"95.592","SITE":"AFETR","BSTAR":"0.00011839000000","OBJECT_ID":"2021-038U","GP_ID":"213835018","TLE_LINE1":"1 48371U 21038U   22272.62042326  .00001482  00000-0  11839-3 0  9997","TLE_LINE2":"2 48371  53.0535 234.8346 0001491  74.4741 285.6412 15.06395715 77697","MEAN_ANOMALY":"285.6412","DECAY_DATE":null,"RCS_SIZE":"LARGE","RA_OF_ASC_NODE":"234.8346","EPOCH":"2022-09-29T14:53:24.569664","CLASSIFICATION_TYPE":"U","LAUNCH_DATE":"2021-05-04","OBJECT_TYPE":"PAYLOAD","TIME_SYSTEM":"UTC","EPHEMERIS_TYPE":"0","MEAN_MOTION_DOT":"0.00001482","REV_AT_EPOCH":"7769","CENTER_NAME":"EARTH","APOAPSIS":"548.259","PERIAPSIS":"546.194","REF_FRAME":"TEME","COUNTRY_CODE":"US","NORAD_CAT_ID":"48371","SEMIMAJOR_AXIS":"6925.362","INCLINATION":"53.0535","MEAN_ELEMENT_THEORY":"SGP4","ARG_OF_PERICENTER":"74.4741","ECCENTRICITY":"0.00014910","FILE":"3587117"},{"ECCENTRICITY":"0.00015830","ARG_OF_PERICENTER":"70.4332","FILE":"3587117","NORAD_CAT_ID":"48372","COUNTRY_CODE":"US","MEAN_ELEMENT_THEORY":"SGP4","SEMIMAJOR_AXIS":"6925.391","INCLINATION":"53.0525","MEAN_MOTION_DOT":"-0.00000681","REV_AT_EPOCH":"7769","EPHEMERIS_TYPE":"0","TIME_SYSTEM":"UTC","REF_FRAME":"TEME","PERIAPSIS":"546.160","APOAPSIS":"548.352","CENTER_NAME":"EARTH","CLASSIFICATION_TYPE":"U","EPOCH":"2022-09-29T14:48:07.040160","RA_OF_ASC_NODE":"234.8484","OBJECT_TYPE":"PAYLOAD","LAUNCH_DATE":"2021-05-04","DECAY_DATE":null,"RCS_SIZE":"LARGE","TLE_LINE2":"2 48372  53.0525 234.8484 0001583  70.4332 289.6828 15.06386100 77697","GP_ID":"213835268","TLE_LINE1":"1 48372U 21038V   22272.61674815 -.00000681  00000-0 -26807-4 0  9995","MEAN_ANOMALY":"289.6828","OBJECT_ID":"2021-038V","SITE":"AFETR","PERIOD":"95.593","MEAN_MOTION":"15.06386100","ELEMENT_SET_NO":"999","MEAN_MOTION_DDOT":"0.0000000000000","OBJECT_NAME":"STARLINK-2572","BSTAR":"-0.00002680700000"}];
